OBJECT_NAME,OBJECT_ID,EPOCH,MEAN_MOTION,ECCENTRICITY,INCLINATION,RA_OF_ASC_NODE,ARG_OF_PERICENTER,MEAN_ANOMALY,EPHEMERIS_TYPE,CLASSIFICATION_TYPE,NORAD_CAT_ID,ELEMENT_SET_NO,REV_AT_EPOCH,BSTAR,MEAN_MOTION_DOT,MEAN_MOTION_DDOT
ONEWEB-0226,2021-045AC,2026-06-04T17:30:17.788320,13.15549527,.00017116,87.9004,261.6743,96.1324,264.0002,0,U,48793,999,24271,.25178308E-3,.108E-5,0
ONEWEB-0224,2021-045AD,2026-06-04T16:37:47.784288,13.15550316,.00018855,87.9001,261.7162,128.3210,231.8090,0,U,48794,999,24263,-.11536672E-3,-.31E-6,0
ONEWEB-0233,2021-045AE,2026-06-04T05:47:19.133088,13.15547570,.00015909,87.9007,261.8152,101.9941,258.1367,0,U,48795,999,24259,.221223E-4,.21E-6,0
ONEWEB-0190,2021-045AF,2026-06-04T16:26:22.989984,13.15550372,.00013016,87.9006,261.6877,100.3656,259.7621,0,U,48796,999,24272,-.6733779E-5,.1E-6,0
ONEWEB-0236,2021-045AG,2026-06-04T05:54:21.809664,13.15548436,.00017036,87.9019,261.7823,118.8040,241.3261,0,U,48797,999,24255,.17786871E-3,.8E-6,0
ONEWEB-0248,2021-045AH,2026-06-04T17:09:44.047296,13.15547134,.0001421,87.9023,261.6735,106.5263,253.6024,0,U,48798,999,24277,.23660246E-4,.22E-6,0
ONEWEB-0225,2021-045AJ,2026-06-04T17:41:42.749376,13.15547634,.00017224,87.9002,261.6778,106.2992,253.8328,0,U,48799,999,24278,.57846266E-3,.231E-5,0
ONEWEB-0215,2021-045AK,2026-06-04T16:58:19.785216,13.15550153,.00013121,87.9017,261.6669,103.8340,256.2937,0,U,48800,999,24265,-.39800107E-3,-.137E-5,0
ONEWEB-0216,2021-045AL,2026-06-04T17:12:02.998368,13.15547606,.00020167,87.8999,261.6800,94.6394,265.4967,0,U,48801,999,24266,-.13430273E-3,-.38E-6,0
ONEWEB-0239,2021-045AM,2026-06-04T17:18:53.140032,13.15547867,.00012202,87.8995,261.6858,115.8107,244.3149,0,U,48802,999,24270,-.84918713E-4,-.19E-6,0
FENGYUN 4B,2021-047A,2026-06-04T20:09:38.599776,1.00266591,.00051947,0.1224,75.6855,290.3435,294.3156,0,U,48808,999,1844,0,-.317E-5,0
SXM-8,2021-049A,2026-06-04T13:09:25.878816,1.00270817,.00049699,0.0214,18.4347,17.8581,328.9222,0,U,48838,999,1845,0,-.193E-5,0
2021-050D,2021-050D,2026-06-04T23:39:37.382976,15.23204222,.00043647,97.3337,232.3001,322.3446,37.7485,0,U,48843,999,27710,.24661168E-3,.5766E-4,0
NAVSTAR 81 (USA 319),2021-054A,2026-06-04T13:02:04.083648,2.00570096,.00249548,55.1809,332.9681,228.5976,129.9108,0,U,48859,999,3649,0,-.72E-6,0
YAOGAN-30 10A,2021-055A,2026-06-04T15:29:40.932096,15.02621618,.00041257,34.9948,228.6745,314.1057,45.9312,0,U,48860,999,27129,.18605398E-3,.25E-4,0
YAOGAN-30 10B,2021-055B,2026-06-04T14:58:55.731360,15.02612437,.00044551,34.9945,228.4391,321.0023,39.0364,0,U,48861,999,27128,.20139435E-3,.2709E-4,0
YAOGAN-30 10C,2021-055D,2026-06-04T15:45:38.233728,15.02622619,.00027175,34.9947,227.9021,45.4384,314.6546,0,U,48863,999,27100,.21887132E-3,.2947E-4,0
TIANQI-14,2021-055E,2026-06-04T09:27:31.672512,15.13471335,.00055301,34.9974,157.7548,213.5673,146.4689,0,U,48864,999,27178,.38591762E-3,.7034E-4,0
COSMOS 2550,2021-056A,2026-06-03T06:21:27.029088,15.33822322,.00082078,67.1411,142.0174,269.6582,90.3631,0,U,48865,999,27658,.18579141E-3,.5924E-4,0
STARLINK-3004,2021-059B,2026-06-04T21:16:59.287584,16.11937428,.00043143,97.6646,286.4789,307.5584,52.5307,0,U,48880,999,27221,.7668891E-3,.804401E-2,.37639083E-3
STARLINK-3005,2021-059C,2026-06-04T06:19:36.863904,15.01303908,.00016218,97.6264,280.6125,149.6179,210.5140,0,U,48881,999,27179,-.63109783E-3,-.8165E-4,0
TYVAK-0173,2021-059P,2026-06-04T05:35:21.276960,14.81846914,.00109818,96.0084,234.8097,77.2994,282.9451,0,U,48892,999,26632,.30123081E-3,.2351E-4,0
MANDRAKE 2 ABLE,2021-059AE,2026-06-04T02:36:11.080512,15.54435556,.00055401,97.7036,343.9005,51.3785,308.7963,0,U,48907,999,27509,.35692122E-3,.23383E-3,0
MANDRAKE 2 BAKER,2021-059AF,2026-06-04T08:01:49.341504,15.58881725,.00040209,97.7008,346.9273,52.3169,307.8450,0,U,48908,999,27529,.39037393E-3,.30186E-3,0
PACE-1,2021-059AG,2026-06-04T02:19:53.340960,15.77603012,.0000961,97.6780,351.7838,20.3121,339.8182,0,U,48909,999,27573,.53273E-3,.89098E-3,0
YAM-3,2021-059AN,2026-06-04T01:51:56.232288,15.48249286,.0006113,97.6987,341.1796,55.9162,304.2667,0,U,48915,999,27496,.24628E-3,.12895E-3,0
ICEYE-X11,2021-059AR,2026-06-04T17:30:07.835040,15.95067504,.0001524,97.6374,353.4746,2.6949,357.4333,0,U,48918,999,27600,.54921955E-3,.211608E-2,.19541095E-4
FARADAY_PHOENIX,2021-059AX,2026-06-04T18:40:53.105952,15.75291287,.00028851,97.6830,352.4564,16.3958,343.7399,0,U,48924,999,27570,.82112205E-3,.124723E-2,0
HAWK-3B,2021-059BE,2026-06-04T01:24:35.446176,15.68415327,.00043228,97.6667,350.5362,29.2710,330.8792,0,U,48931,999,27579,.39340623E-3,.44288E-3,0
HAWK-3C,2021-059BX,2026-06-04T02:56:01.391712,15.68429078,.00047793,97.6787,356.2683,30.6573,329.4966,0,U,48948,999,27580,.3882268E-3,.43729E-3,0
