ONEWEB-0226             
1 48793U 21045AC  26155.72937255  .00000108  00000+0  25178-3 0  9996
2 48793  87.9004 261.6743 0001711  96.1324 264.0002 13.15549527242717
ONEWEB-0224             
1 48794U 21045AD  26155.69291417 -.00000031  00000+0 -11537-3 0  9997
2 48794  87.9001 261.7162 0001885 128.3210 231.8090 13.15550316242633
ONEWEB-0233             
1 48795U 21045AE  26155.24119367  .00000021  00000+0  22122-4 0  9992
2 48795  87.9007 261.8152 0001590 101.9941 258.1367 13.15547570242593
ONEWEB-0190             
1 48796U 21045AF  26155.68498831  .00000010  00000+0 -67338-5 0  9995
2 48796  87.9006 261.6877 0001301 100.3656 259.7621 13.15550372242720
ONEWEB-0236             
1 48797U 21045AG  26155.24608576  .00000080  00000+0  17787-3 0  9994
2 48797  87.9019 261.7823 0001703 118.8040 241.3261 13.15548436242550
ONEWEB-0248             
1 48798U 21045AH  26155.71509314  .00000022  00000+0  23660-4 0  9991
2 48798  87.9023 261.6735 0001421 106.5263 253.6024 13.15547134242776
ONEWEB-0225             
1 48799U 21045AJ  26155.73730034  .00000231  00000+0  57846-3 0  9993
2 48799  87.9002 261.6778 0001722 106.2992 253.8328 13.15547634242786
ONEWEB-0215             
1 48800U 21045AK  26155.70717344 -.00000137  00000+0 -39800-3 0  9999
2 48800  87.9017 261.6669 0001312 103.8340 256.2937 13.15550153242658
ONEWEB-0216             
1 48801U 21045AL  26155.71670137 -.00000038  00000+0 -13430-3 0  9990
2 48801  87.8999 261.6800 0002016  94.6394 265.4967 13.15547606242667
ONEWEB-0239             
1 48802U 21045AM  26155.72144838 -.00000019  00000+0 -84919-4 0  9996
2 48802  87.8995 261.6858 0001220 115.8107 244.3149 13.15547867242703
FENGYUN 4B              
1 48808U 21047A   26155.84003009 -.00000317  00000+0  00000+0 0  9995
2 48808   0.1224  75.6855 0005194 290.3435 294.3156  1.00266591 18447
SXM-8                   
1 48838U 21049A   26155.54821619 -.00000193  00000+0  00000+0 0  9994
2 48838   0.0214  18.4347 0004969  17.8581 328.9222  1.00270817 18457
2021-050D               
1 48843U 21050D   26155.98584934  .00005766  00000+0  24661-3 0  9999
2 48843  97.3337 232.3001 0004364 322.3446  37.7485 15.23204222277107
NAVSTAR 81 (USA 319)    
1 48859U 21054A   26155.54310282 -.00000072  00000+0  00000+0 0  9998
2 48859  55.1809 332.9681 0024954 228.5976 129.9108  2.00570096 36490
YAOGAN-30 10A           
1 48860U 21055A   26155.64561264  .00002500  00000+0  18605-3 0  9991
2 48860  34.9948 228.6745 0004125 314.1057  45.9312 15.02621618271299
YAOGAN-30 10B           
1 48861U 21055B   26155.62425615  .00002709  00000+0  20139-3 0  9995
2 48861  34.9945 228.4391 0004455 321.0023  39.0364 15.02612437271287
YAOGAN-30 10C           
1 48863U 21055D   26155.65669252  .00002947  00000+0  21887-3 0  9992
2 48863  34.9947 227.9021 0002717  45.4384 314.6546 15.02622619271008
TIANQI-14               
1 48864U 21055E   26155.39411658  .00007034  00000+0  38592-3 0  9992
2 48864  34.9974 157.7548 0005530 213.5673 146.4689 15.13471335271781
COSMOS 2550             
1 48865U 21056A   26154.26489617  .00005924  00000+0  18579-3 0  9998
2 48865  67.1411 142.0174 0008207 269.6582  90.3631 15.33822322276588
STARLINK-3004           
1 48880U 21059B   26155.88679731  .00804401  37639-3  76689-3 0  9990
2 48880  97.6646 286.4789 0004314 307.5584  52.5307 16.11937428272214
STARLINK-3005           
1 48881U 21059C   26155.26362111 -.00008165  00000+0 -63110-3 0  9992
2 48881  97.6264 280.6125 0001621 149.6179 210.5140 15.01303908271795
TYVAK-0173              
1 48892U 21059P   26155.23288515  .00002351  00000+0  30123-3 0  9993
2 48892  96.0084 234.8097 0010981  77.2994 282.9451 14.81846914266326
MANDRAKE 2 ABLE         
1 48907U 21059AE  26155.10846158  .00023383  00000+0  35692-3 0  9993
2 48907  97.7036 343.9005 0005540  51.3785 308.7963 15.54435556275091
MANDRAKE 2 BAKER        
1 48908U 21059AF  26155.33459886  .00030186  00000+0  39037-3 0  9993
2 48908  97.7008 346.9273 0004020  52.3169 307.8450 15.58881725275290
PACE-1                  
1 48909U 21059AG  26155.09714515  .00089098  00000+0  53273-3 0  9994
2 48909  97.6780 351.7838 0000961  20.3121 339.8182 15.77603012275739
YAM-3                   
1 48915U 21059AN  26155.07773417  .00012895  00000+0  24628-3 0  9998
2 48915  97.6987 341.1796 0006113  55.9162 304.2667 15.48249286274960
ICEYE-X11               
1 48918U 21059AR  26155.72925735  .00211608  19541-4  54922-3 0  9993
2 48918  97.6374 353.4746 0001524   2.6949 357.4333 15.95067504276007
FARADAY_PHOENIX         
1 48924U 21059AX  26155.77839243  .00124723  00000+0  82112-3 0  9991
2 48924  97.6830 352.4564 0002885  16.3958 343.7399 15.75291287275702
HAWK-3B                 
1 48931U 21059BE  26155.05874359  .00044288  00000+0  39341-3 0  9990
2 48931  97.6667 350.5362 0004322  29.2710 330.8792 15.68415327275798
HAWK-3C                 
1 48948U 21059BX  26155.12223833  .00043729  00000+0  38823-3 0  9994
2 48948  97.6787 356.2683 0004779  30.6573 329.4966 15.68429078275804
